ONEWEB-0578             
1 56067U 23043X   25111.55029929  .00000017  00000+0  97477-5 0  9993
2 56067  87.9281 328.0593 0001899  89.7908 270.3444 13.21824708103441
ONEWEB-0579             
1 56068U 23043Y   25111.16234294  .00000063  00000+0  12078-3 0  9997
2 56068  87.9284 328.1226 0001749  75.0690 285.0637 13.21825372103400
ONEWEB-0581             
1 56069U 23043Z   25110.53117132 -.00000018  00000+0 -79686-4 0  9990
2 56069  87.9025 313.0491 0002155  80.1767 279.9608 13.16594954103341
ONEWEB-0609             
1 56070U 23043AA  25110.60922663 -.00000381  00000+0 -10466-2 0  9995
2 56070  87.9090 343.4316 0001706  84.7246 275.4079 13.15548317100870
ONEWEB-0613             
1 56071U 23043AB  25110.60448896 -.00000123  00000+0 -35952-3 0  9999
2 56071  87.9094 343.4407 0001655  74.3709 285.7604 13.15547541100874
ONEWEB-0630             
1 56072U 23043AC  25110.59972379 -.00000314  00000+0 -86829-3 0  9997
2 56072  87.9090 343.4222 0001509  73.9106 286.2190 13.15547170100863
ONEWEB-0632             
1 56073U 23043AD  25110.59497227 -.00000141  00000+0 -40865-3 0  9990
2 56073  87.9092 343.4425 0001945  76.8317 283.3030 13.15545868100864
ONEWEB-0633             
1 56074U 23043AE  25110.20834615 -.00000136  00000+0 -39554-3 0  9992
2 56074  87.9090 343.4893 0001394  75.0948 285.0337 13.15546736101709
